NORAD_CAT_ID,OBJECT_NAME,OBJECT_TYPE,EPOCH,MEAN_MOTION,ECCENTRICITY,INCLINATION,RA_OF_ASC_NODE,ARG_OF_PERICENTER,MEAN_ANOMALY,BSTAR,MEAN_MOTION_DOT,MEAN_MOTION_DDOT,TLE_LINE0,TLE_LINE1,TLE_LINE2,SEMIMAJOR_AXIS,PERIOD,APOGEE,PERIGEE,DECAYED
55948.0,STARLINK-5900,PAYLOAD,2023-06-09 12:13:18,15.69923473,0.0003438,69.9998,305.6159,273.9902,86.09,8.7718e-06,8.42e-06,0.0,0 STARLINK-5900,1 55948U 23037AL  23160.50924014  .00000842  00000-0  87718-5 0  9993,2 55948  69.9998 305.6159 0003438 273.9902  86.0900 15.69923473 13671,6737.253,91.724,361.434,356.802,0.0
55948.0,STARLINK-5900,PAYLOAD,2023-06-09 19:52:03,15.69925149,0.000395,69.9986,304.7182,267.7572,92.3171,7.8741e-08,-2.04e-06,0.0,0 STARLINK-5900,1 55948U 23037AL  23160.82782147 -.00000204  00000-0  78741-7 0  9998,2 55948  69.9986 304.7182 0003950 267.7572  92.3171 15.69925149 13387,6737.248,91.724,361.774,356.452,0.0
55948.0,STARLINK-5900,PAYLOAD,2023-06-10 14:13:05,15.69929599,0.0003418,69.9997,302.5699,276.5469,83.5338,1.8465e-05,2.009e-05,0.0,0 STARLINK-5900,1 55948U 23037AL  23161.59242251  .00002009  00000-0  18465-4 0  9998,2 55948  69.9997 302.5699 0003418 276.5469  83.5338 15.69929599 13841,6737.235,91.724,361.403,356.798,0.0
55948.0,STARLINK-5900,PAYLOAD,2023-06-11 02:27:06,15.69925698,0.0003443,69.9988,301.136,280.4419,79.6389,-6.8439e-06,-1.036e-05,0.0,0 STARLINK-5900,1 55948U 23037AL  23162.10215818 -.00001036  00000-0 -68439-5 0  9993,2 55948  69.9988 301.1360 0003443 280.4419  79.6389 15.69925698 13925,6737.247,91.724,361.431,356.792,0.0
55948.0,STARLINK-5900,PAYLOAD,2023-06-11 13:09:22,15.69929388,0.0003571,69.9993,299.8826,276.5614,83.5175,1.682e-05,1.811e-05,0.0,0 STARLINK-5900,1 55948U 23037AL  23162.54817307  .00001811  00000-0  16820-4 0  9997,2 55948  69.9993 299.8826 0003571 276.5614  83.5175 15.69929388 13653,6737.236,91.724,361.507,356.695,0.0
55948.0,STARLINK-5900,PAYLOAD,2023-06-11 19:16:22,15.69928512,0.0003665,69.9988,299.1667,274.9178,85.1599,1.2762e-05,1.322e-05,0.0,0 STARLINK-5900,1 55948U 23037AL  23162.80303961  .00001322  00000-0  12762-4 0  9990,2 55948  69.9988 299.1667 0003665 274.9178  85.1599 15.69928512 13694,6737.239,91.724,361.573,356.634,0.0
55948.0,STARLINK-5900,PAYLOAD,2023-06-12 15:09:09,15.69926019,0.0003521,69.9983,296.8378,271.4941,88.5852,-3.667e-06,-6.54e-06,0.0,0 STARLINK-5900,1 55948U 23037AL  23163.63135714 -.00000654  00000-0 -36670-5 0  9995,2 55948  69.9983 296.8378 0003521 271.4941  88.5852 15.69926019 14165,6737.246,91.724,361.483,356.738,0.0
55948.0,STARLINK-5900,PAYLOAD,2023-06-12 18:12:39,15.69919283,0.0003393,69.9993,296.4792,274.3061,85.7747,-1.2672e-05,-1.736e-05,0.0,0 STARLINK-5900,1 55948U 23037AL  23163.75879440 -.00001736  00000-0 -12672-4 0  9996,2 55948  69.9993 296.4792 0003393 274.3061  85.7747 15.69919283 14183,6737.265,91.724,361.416,356.844,0.0
55948.0,STARLINK-5900,PAYLOAD,2023-06-13 12:33:42,15.69912522,0.0003322,69.9991,294.33,273.4194,86.6622,-1.0472e-05,-1.471e-05,0.0,0 STARLINK-5900,1 55948U 23037AL  23164.52340288 -.00001471  00000-0 -10472-4 0  9997,2 55948  69.9991 294.3300 0003322 273.4194  86.6622 15.69912522 13968,6737.284,91.725,361.387,356.911,0.0
55948.0,STARLINK-5900,PAYLOAD,2023-06-13 18:40:41,15.69926451,0.0003299,69.9994,293.6141,281.8122,78.2704,1.0944e-05,1.103e-05,0.0,0 STARLINK-5900,1 55948U 23037AL  23164.77825952  .00001103  00000-0  10944-4 0  9994,2 55948  69.9994 293.6141 0003299 281.8122  78.2704 15.69926451 14340,6737.244,91.724,361.332,356.887,0.0
55948.0,STARLINK-5900,PAYLOAD,2023-06-14 08:26:28,15.69901194,0.0003065,70.0014,292.0023,272.471,87.6135,5.2254e-05,6.069e-05,0.0,0 STARLINK-5900,1 55948U 23037AL  23165.35172223  .00006069  00000-0  52254-4 0  9991,2 55948  70.0014 292.0023 0003065 272.4710  87.6135 15.69901194 14437,6737.317,91.726,361.247,357.117,0.0
55948.0,STARLINK-5900,PAYLOAD,2023-06-14 19:08:44,15.69917958,0.0003124,70.0009,290.7477,272.9994,87.0844,5.2501e-05,6.103e-05,0.0,0 STARLINK-5900,1 55948U 23037AL  23165.79773394  .00006103  00000-0  52501-4 0  9999,2 55948  70.0009 290.7477 0003124 272.9994  87.0844 15.69917958 14160,6737.269,91.725,361.238,357.029,0.0
55948.0,STARLINK-5900,PAYLOAD,2023-06-15 01:15:44,15.6992273,0.000329,70.0,290.0297,273.0873,86.9946,1.6471e-05,1.768e-05,0.0,0 STARLINK-5900,1 55948U 23037AL  23166.05259754  .00001768  00000-0  16471-4 0  9996,2 55948  70.0000 290.0297 0003290 273.0873  86.9946 15.69922730 14543,6737.255,91.724,361.337,356.904,0.0
55948.0,STARLINK-5900,PAYLOAD,2023-06-15 11:58:00,15.6992367,0.0003443,69.9999,288.775,279.4526,80.628,6.2169e-06,5.35e-06,0.0,0 STARLINK-5900,1 55948U 23037AL  23166.49861497  .00000535  00000-0  62169-5 0  9994,2 55948  69.9999 288.7750 0003443 279.4526  80.6280 15.69923670 14276,6737.252,91.724,361.437,356.798,0.0
55948.0,STARLINK-5900,PAYLOAD,2023-06-15 18:05:00,15.6993316,0.0003489,70.0004,288.0598,281.505,78.5754,2.4296e-05,2.711e-05,0.0,0 STARLINK-5900,1 55948U 23037AL  23166.75347701  .00002711  00000-0  24296-4 0  9996,2 55948  70.0004 288.0598 0003489 281.5050  78.5754 15.69933160 14317,6737.225,91.724,361.441,356.74,0.0
55948.0,STARLINK-5900,PAYLOAD,2023-06-16 01:43:46,15.69929477,0.0003608,69.9995,287.1623,278.0456,82.033,2.8954e-05,3.271e-05,0.0,0 STARLINK-5900,1 55948U 23037AL  23167.07206114  .00003271  00000-0  28954-4 0  9991,2 55948  69.9995 287.1623 0003608 278.0456  82.0330 15.69929477 14705,6737.236,91.724,361.532,356.67,0.0
55948.0,STARLINK-5900,PAYLOAD,2023-06-16 13:57:46,15.6993749,0.0003643,69.9995,285.73,275.7835,84.2945,2.0724e-05,2.281e-05,0.0,0 STARLINK-5900,1 55948U 23037AL  23167.58178870  .00002281  00000-0  20724-4 0  9991,2 55948  69.9995 285.7300 0003643 275.7835  84.2945 15.69937490 14446,6737.213,91.723,361.532,356.623,0.0
55948.0,STARLINK-5900,PAYLOAD,2023-06-16 17:01:17,15.69914977,0.000349,70.0003,285.3721,280.6147,79.4656,-1.2723e-05,-1.742e-05,0.0,0 STARLINK-5900,1 55948U 23037AL  23167.70923361 -.00001742  00000-0 -12723-4 0  9991,2 55948  70.0003 285.3721 0003490 280.6147  79.4656 15.69914977 14465,6737.277,91.725,361.494,356.791,0.0
55948.0,STARLINK-5900,PAYLOAD,2023-06-17 08:18:49,15.69910067,0.0003442,70.0005,283.5805,280.5242,79.5566,-1.5268e-05,-2.047e-05,0.0,0 STARLINK-5900,1 55948U 23037AL  23168.34640674 -.00002047  00000-0 -15268-4 0  9991,2 55948  70.0005 283.5805 0003442 280.5242  79.5566 15.69910067 14560,6737.291,91.725,361.475,356.837,0.0
55948.0,STARLINK-5900,PAYLOAD,2023-06-17 17:29:19,15.69924582,0.0003415,70.0007,282.5052,279.504,80.5769,1.7248e-05,1.862e-05,0.0,0 STARLINK-5900,1 55948U 23037AL  23168.72870105  .00001862  00000-0  17248-4 0  9999,2 55948  70.0007 282.5052 0003415 279.5040  80.5769 15.69924582 14967,6737.25,91.724,361.416,356.814,0.0
55948.0,STARLINK-5900,PAYLOAD,2023-06-17 19:01:04,15.69927012,0.0003273,70.0012,282.3269,279.626,80.4566,2.2314e-05,2.471e-05,0.0,0 STARLINK-5900,1 55948U 23037AL  23168.79241700  .00002471  00000-0  22314-4 0  9996,2 55948  70.0012 282.3269 0003273 279.6260  80.4566 15.69927012 14637,6737.243,91.724,361.313,356.903,0.0
55948.0,STARLINK-5900,PAYLOAD,2023-06-18 07:15:05,15.69931787,0.0003012,70.0009,280.8952,281.3196,78.7661,2.4111e-05,2.688e-05,0.0,0 STARLINK-5900,1 55948U 23037AL  23169.30214867  .00002688  00000-0  24111-4 0  9995,2 55948  70.0009 280.8952 0003012 281.3196  78.7661 15.69931787 14713,6737.229,91.724,361.123,357.065,0.0
55948.0,STARLINK-5900,PAYLOAD,2023-06-18 22:00:00,15.69964307,0.0003498,70.0005,279.1651,275.8995,316.266,-0.00086253,-0.0010284,0.0,0 STARLINK-5900,1 55948U 23037AL  23169.91667824 -.00102840  00000-0 -86253-3 0  9994,2 55948  70.0005 279.1651 0003498 275.8995 316.2660 15.69964307  1303,6737.136,91.722,361.358,356.644,0.0
55948.0,STARLINK-5900,PAYLOAD,2023-06-19 06:11:22,15.69922634,0.0002792,70.0014,278.2078,277.0781,83.0098,3.7402e-05,4.286e-05,0.0,0 STARLINK-5900,1 55948U 23037AL  23170.25790381  .00004286  00000-0  37402-4 0  9994,2 55948  70.0014 278.2078 0002792 277.0781  83.0098 15.69922634 15204,6737.255,91.724,361.001,357.239,0.0
55948.0,STARLINK-5900,PAYLOAD,2023-06-19 13:50:08,15.69925867,0.0002822,70.0021,277.3129,268.3573,91.7299,2.866e-05,3.235e-05,0.0,0 STARLINK-5900,1 55948U 23037AL  23170.57648490  .00003235  00000-0  28660-4 0  9991,2 55948  70.0021 277.3129 0002822 268.3573  91.7299 15.69925867 14912,6737.246,91.724,361.012,357.21,0.0
55948.0,STARLINK-5900,PAYLOAD,2023-06-20 11:14:39,15.69929565,0.0003613,69.9989,274.805,270.9881,89.09,2.4057e-05,2.681e-05,0.0,0 STARLINK-5900,1 55948U 23037AL  23171.46851626  .00002681  00000-0  24057-4 0  9997,2 55948  69.9989 274.8050 0003613 270.9881  89.0900 15.69929565 15051,6737.236,91.724,361.535,356.666,0.0
55948.0,STARLINK-5900,PAYLOAD,2023-06-20 15:49:55,15.69931928,0.0003527,69.9989,274.2676,269.4739,90.6052,1.8449e-05,2.007e-05,0.0,0 STARLINK-5900,1 55948U 23037AL  23171.65966488  .00002007  00000-0  18449-4 0  9991,2 55948  69.9989 274.2676 0003527 269.4739  90.6052 15.69931928 15421,6737.229,91.724,361.47,356.718,0.0
55948.0,STARLINK-5900,PAYLOAD,2023-06-21 10:10:56,15.69922944,0.0003083,69.9996,272.1141,269.3622,90.722,9.3498e-06,9.12e-06,0.0,0 STARLINK-5900,1 55948U 23037AL  23172.42427079  .00000912  00000-0  93498-5 0  9996,2 55948  69.9996 272.1141 0003083 269.3622  90.7220 15.69922944 15549,6737.254,91.724,361.197,357.042,0.0
55948.0,STARLINK-5900,PAYLOAD,2023-06-21 13:14:26,15.69932771,0.0003097,70.0004,271.7587,265.8429,94.2413,3.3567e-05,3.827e-05,0.0,0 STARLINK-5900,1 55948U 23037AL  23172.55169889  .00003827  00000-0  33567-4 0  9990,2 55948  70.0004 271.7587 0003097 265.8429  94.2413 15.69932771 15229,6737.226,91.724,361.178,357.005,0.0
55948.0,STARLINK-5900,PAYLOAD,2023-06-21 16:17:58,15.69907459,0.0002965,70.0004,271.3989,269.7019,90.3837,-1.9149e-05,-2.512e-05,0.0,0 STARLINK-5900,1 55948U 23037AL  23172.67914508 -.00002512  00000-0 -19149-4 0  9991,2 55948  70.0004 271.3989 0002965 269.7019  90.3837 15.69907459 15583,6737.299,91.725,361.161,357.166,0.0
